[{"OBJECT_NAME":"TIANMU-1 08","OBJECT_ID":"2023-101B","EPOCH":"2026-03-07T00:03:25.475616","MEAN_MOTION":15.29204229,"ECCENTRICITY":0.00063808,"INCLINATION":97.2717,"RA_OF_ASC_NODE":118.7901,"ARG_OF_PERICENTER":134.2174,"MEAN_ANOMALY":225.9592,"EPHEMERIS_TYPE":0,"CLASSIFICATION_TYPE":"U","NORAD_CAT_ID":57400,"ELEMENT_SET_NO":999,"REV_AT_EPOCH":14602,"BSTAR":1.4774513e-5,"MEAN_MOTION_DOT":3.46e-6,"MEAN_MOTION_DDOT":0},{"OBJECT_NAME":"STARLINK-33791","OBJECT_ID":"2025-076AB","EPOCH":"2026-03-09T09:34:36.408864","MEAN_MOTION":15.27573239,"ECCENTRICITY":5.353e-5,"INCLINATION":42.9965,"RA_OF_ASC_NODE":323.5303,"ARG_OF_PERICENTER":14.5372,"MEAN_ANOMALY":345.5495,"EPHEMERIS_TYPE":0,"CLASSIFICATION_TYPE":"U","NORAD_CAT_ID":63594,"ELEMENT_SET_NO":999,"REV_AT_EPOCH":5178,"BSTAR":0.0013368619,"MEAN_MOTION_DOT":0.00036701,"MEAN_MOTION_DDOT":0}]
