TIANMU-1 08             
1 57400U 23101B   26066.00237819  .00000346  00000+0  14775-4 0  9993
2 57400  97.2717 118.7901 0006380 134.2174 225.9592 15.29204229146020
STARLINK-33791          
1 63594U 25076AB  26068.39903251  .00036701  00000+0  13369-2 0  9991
2 63594  42.9965 323.5303 0000535  14.5372 345.5495 15.27573239 51788
